[{"OBJECT_NAME":"STARLINK-3976","OBJECT_ID":"2022-053T","EPOCH":"2025-10-15T10:30:26.390016","MEAN_MOTION":15.0882639,"ECCENTRICITY":0.00015366,"INCLINATION":53.2155,"RA_OF_ASC_NODE":86.1804,"ARG_OF_PERICENTER":102.6825,"MEAN_ANOMALY":257.434,"EPHEMERIS_TYPE":0,"CLASSIFICATION_TYPE":"U","NORAD_CAT_ID":52673,"ELEMENT_SET_NO":999,"REV_AT_EPOCH":18911,"BSTAR":0.00027961659,"MEAN_MOTION_DOT":4.163e-5,"MEAN_MOTION_DDOT":0},{"OBJECT_NAME":"STARLINK-3936","OBJECT_ID":"2022-053U","EPOCH":"2025-10-14T17:22:22.693728","MEAN_MOTION":15.08850063,"ECCENTRICITY":0.00014306,"INCLINATION":53.2159,"RA_OF_ASC_NODE":89.3854,"ARG_OF_PERICENTER":90.6657,"MEAN_ANOMALY":269.4499,"EPHEMERIS_TYPE":0,"CLASSIFICATION_TYPE":"U","NORAD_CAT_ID":52674,"ELEMENT_SET_NO":999,"REV_AT_EPOCH":18901,"BSTAR":0.00015276366,"MEAN_MOTION_DOT":2.145e-5,"MEAN_MOTION_DDOT":0},{"OBJECT_NAME":"STARLINK-3934","OBJECT_ID":"2022-053V","EPOCH":"2025-10-15T10:26:26.973888","MEAN_MOTION":15.0883299,"ECCENTRICITY":0.00012048,"INCLINATION":53.217,"RA_OF_ASC_NODE":76.1923,"ARG_OF_PERICENTER":94.9552,"MEAN_ANOMALY":265.1577,"EPHEMERIS_TYPE":0,"CLASSIFICATION_TYPE":"U","NORAD_CAT_ID":52675,"ELEMENT_SET_NO":999,"REV_AT_EPOCH":18924,"BSTAR":1.6150911e-5,"MEAN_MOTION_DOT":-3.1e-7,"MEAN_MOTION_DDOT":0},{"OBJECT_NAME":"STARLINK-4006","OBJECT_ID":"2022-053W","EPOCH":"2025-10-15T16:57:15.290208","MEAN_MOTION":15.08839143,"ECCENTRICITY":0.000128,"INCLINATION":53.2163,"RA_OF_ASC_NODE":84.9755,"ARG_OF_PERICENTER":86.5191,"MEAN_ANOMALY":273.5947,"EPHEMERIS_TYPE":0,"CLASSIFICATION_TYPE":"U","NORAD_CAT_ID":52676,"ELEMENT_SET_NO":999,"REV_AT_EPOCH":18915,"BSTAR":8.0315e-5,"MEAN_MOTION_DOT":9.91e-6,"MEAN_MOTION_DDOT":0},{"OBJECT_NAME":"STARLINK-4074","OBJECT_ID":"2022-053Y","EPOCH":"2025-10-15T17:03:53.836128","MEAN_MOTION":15.08839263,"ECCENTRICITY":0.0001205,"INCLINATION":53.2176,"RA_OF_ASC_NODE":75.0603,"ARG_OF_PERICENTER":91.5231,"MEAN_ANOMALY":268.5899,"EPHEMERIS_TYPE":0,"CLASSIFICATION_TYPE":"U","NORAD_CAT_ID":52678,"ELEMENT_SET_NO":999,"REV_AT_EPOCH":18928,"BSTAR":7.4419e-5,"MEAN_MOTION_DOT":8.97e-6,"MEAN_MOTION_DDOT":0},{"OBJECT_NAME":"STARLINK-4031","OBJECT_ID":"2022-053Z","EPOCH":"2025-10-15T19:32:15.869184","MEAN_MOTION":15.08841996,"ECCENTRICITY":0.0001215,"INCLINATION":53.2165,"RA_OF_ASC_NODE":74.4912,"ARG_OF_PERICENTER":94.6735,"MEAN_ANOMALY":265.4396,"EPHEMERIS_TYPE":0,"CLASSIFICATION_TYPE":"U","NORAD_CAT_ID":52679,"ELEMENT_SET_NO":999,"REV_AT_EPOCH":18926,"BSTAR":2.4027e-5,"MEAN_MOTION_DOT":9.5e-7,"MEAN_MOTION_DDOT":0},{"OBJECT_NAME":"STARLINK-3774","OBJECT_ID":"2022-053AA","EPOCH":"2025-10-15T19:21:37.259136","MEAN_MOTION":15.08833795,"ECCENTRICITY":0.0001406,"INCLINATION":53.217,"RA_OF_ASC_NODE":74.2929,"ARG_OF_PERICENTER":88.9675,"MEAN_ANOMALY":271.1478,"EPHEMERIS_TYPE":0,"CLASSIFICATION_TYPE":"U","NORAD_CAT_ID":52680,"ELEMENT_SET_NO":999,"REV_AT_EPOCH":18928,"BSTAR":0.00014721,"MEAN_MOTION_DOT":2.055e-5,"MEAN_MOTION_DDOT":0},{"OBJECT_NAME":"STARLINK-4068","OBJECT_ID":"2022-053AB","EPOCH":"2025-10-15T16:16:11.764416","MEAN_MOTION":15.08848725,"ECCENTRICITY":0.0001168,"INCLINATION":53.2157,"RA_OF_ASC_NODE":75.1022,"ARG_OF_PERICENTER":85.4861,"MEAN_ANOMALY":274.6264,"EPHEMERIS_TYPE":0,"CLASSIFICATION_TYPE":"U","NORAD_CAT_ID":52681,"ELEMENT_SET_NO":999,"REV_AT_EPOCH":18924,"BSTAR":0.00017289,"MEAN_MOTION_DOT":2.465e-5,"MEAN_MOTION_DDOT":0},{"OBJECT_NAME":"STARLINK-4017","OBJECT_ID":"2022-053AC","EPOCH":"2025-10-15T19:42:51.527808","MEAN_MOTION":15.08836183,"ECCENTRICITY":0.000125,"INCLINATION":53.2146,"RA_OF_ASC_NODE":74.4595,"ARG_OF_PERICENTER":92.379,"MEAN_ANOMALY":267.7345,"EPHEMERIS_TYPE":0,"CLASSIFICATION_TYPE":"U","NORAD_CAT_ID":52682,"ELEMENT_SET_NO":999,"REV_AT_EPOCH":18928,"BSTAR":3.2466e-5,"MEAN_MOTION_DOT":2.29e-6,"MEAN_MOTION_DDOT":0},{"OBJECT_NAME":"STARLINK-4014","OBJECT_ID":"2022-053AE","EPOCH":"2025-10-15T19:37:34.146048","MEAN_MOTION":15.08845459,"ECCENTRICITY":0.0001385,"INCLINATION":53.2152,"RA_OF_ASC_NODE":74.4748,"ARG_OF_PERICENTER":83.7895,"MEAN_ANOMALY":276.3255,"EPHEMERIS_TYPE":0,"CLASSIFICATION_TYPE":"U","NORAD_CAT_ID":52684,"ELEMENT_SET_NO":999,"REV_AT_EPOCH":18926,"BSTAR":0.00051385,"MEAN_MOTION_DOT":7.901e-5,"MEAN_MOTION_DDOT":0},{"OBJECT_NAME":"STARLINK-4029","OBJECT_ID":"2022-053AF","EPOCH":"2025-10-15T09:33:27.073728","MEAN_MOTION":15.08842171,"ECCENTRICITY":0.00013167,"INCLINATION":53.2171,"RA_OF_ASC_NODE":76.3592,"ARG_OF_PERICENTER":86.6149,"MEAN_ANOMALY":273.4993,"EPHEMERIS_TYPE":0,"CLASSIFICATION_TYPE":"U","NORAD_CAT_ID":52685,"ELEMENT_SET_NO":999,"REV_AT_EPOCH":18918,"BSTAR":-6.2726309e-5,"MEAN_MOTION_DOT":-1.286e-5,"MEAN_MOTION_DDOT":0},{"OBJECT_NAME":"STARLINK-4005","OBJECT_ID":"2022-053AG","EPOCH":"2025-10-15T16:49:27.054048","MEAN_MOTION":15.08812162,"ECCENTRICITY":9.83e-5,"INCLINATION":53.2174,"RA_OF_ASC_NODE":75.2787,"ARG_OF_PERICENTER":89.3633,"MEAN_ANOMALY":270.7472,"EPHEMERIS_TYPE":0,"CLASSIFICATION_TYPE":"U","NORAD_CAT_ID":52686,"ELEMENT_SET_NO":999,"REV_AT_EPOCH":18923,"BSTAR":-0.00011241,"MEAN_MOTION_DOT":-2.075e-5,"MEAN_MOTION_DDOT":0},{"OBJECT_NAME":"STARLINK-3981","OBJECT_ID":"2022-053AH","EPOCH":"2025-10-15T19:00:27.834048","MEAN_MOTION":15.08842571,"ECCENTRICITY":0.0001373,"INCLINATION":53.2161,"RA_OF_ASC_NODE":74.59,"ARG_OF_PERICENTER":87.2874,"MEAN_ANOMALY":272.8275,"EPHEMERIS_TYPE":0,"CLASSIFICATION_TYPE":"U","NORAD_CAT_ID":52687,"ELEMENT_SET_NO":999,"REV_AT_EPOCH":18924,"BSTAR":0.00018376,"MEAN_MOTION_DOT":2.638e-5,"MEAN_MOTION_DDOT":0},{"OBJECT_NAME":"STARLINK-4032","OBJECT_ID":"2022-053AJ","EPOCH":"2025-10-15T18:55:08.656896","MEAN_MOTION":15.08838416,"ECCENTRICITY":0.0001357,"INCLINATION":53.217,"RA_OF_ASC_NODE":74.4904,"ARG_OF_PERICENTER":89.0374,"MEAN_ANOMALY":271.0773,"EPHEMERIS_TYPE":0,"CLASSIFICATION_TYPE":"U","NORAD_CAT_ID":52688,"ELEMENT_SET_NO":999,"REV_AT_EPOCH":18924,"BSTAR":6.2467e-5,"MEAN_MOTION_DOT":7.06e-6,"MEAN_MOTION_DDOT":0},{"OBJECT_NAME":"STARLINK-4078","OBJECT_ID":"2022-053AK","EPOCH":"2025-10-15T17:29:37.201056","MEAN_MOTION":15.36419434,"ECCENTRICITY":6.72e-5,"INCLINATION":53.2176,"RA_OF_ASC_NODE":50.5821,"ARG_OF_PERICENTER":89.426,"MEAN_ANOMALY":270.6821,"EPHEMERIS_TYPE":0,"CLASSIFICATION_TYPE":"U","NORAD_CAT_ID":52689,"ELEMENT_SET_NO":999,"REV_AT_EPOCH":18961,"BSTAR":0.0010744,"MEAN_MOTION_DOT":0.00038534,"MEAN_MOTION_DDOT":0},{"OBJECT_NAME":"STARLINK-4035","OBJECT_ID":"2022-053AL","EPOCH":"2025-10-15T19:11:03.437376","MEAN_MOTION":15.0884553,"ECCENTRICITY":0.0001256,"INCLINATION":53.2171,"RA_OF_ASC_NODE":74.5581,"ARG_OF_PERICENTER":85.3524,"MEAN_ANOMALY":274.7611,"EPHEMERIS_TYPE":0,"CLASSIFICATION_TYPE":"U","NORAD_CAT_ID":52690,"ELEMENT_SET_NO":999,"REV_AT_EPOCH":18924,"BSTAR":6.3157e-5,"MEAN_MOTION_DOT":7.18e-6,"MEAN_MOTION_DDOT":0},{"OBJECT_NAME":"STARLINK-3993","OBJECT_ID":"2022-053AN","EPOCH":"2025-10-15T19:53:24.736992","MEAN_MOTION":15.0883704,"ECCENTRICITY":0.0001341,"INCLINATION":53.2171,"RA_OF_ASC_NODE":74.1547,"ARG_OF_PERICENTER":90.0884,"MEAN_ANOMALY":270.0262,"EPHEMERIS_TYPE":0,"CLASSIFICATION_TYPE":"U","NORAD_CAT_ID":52692,"ELEMENT_SET_NO":999,"REV_AT_EPOCH":18928,"BSTAR":4.9093e-5,"MEAN_MOTION_DOT":4.93e-6,"MEAN_MOTION_DDOT":0}]
