STARLINK-3976           
1 52673U 22053T   25288.43780544  .00004163  00000+0  27962-3 0  9997
2 52673  53.2155  86.1804 0001536 102.6825 257.4340 15.08826390189119
STARLINK-3936           
1 52674U 22053U   25287.72387377  .00002145  00000+0  15276-3 0  9999
2 52674  53.2159  89.3854 0001430  90.6657 269.4499 15.08850063189017
STARLINK-3934           
1 52675U 22053V   25288.43503442 -.00000031  00000+0  16151-4 0  9999
2 52675  53.2170  76.1923 0001204  94.9552 265.1577 15.08832990189246
STARLINK-4006           
1 52676U 22053W   25288.70642697  .00000991  00000+0  80315-4 0  9993
2 52676  53.2163  84.9755 0001280  86.5191 273.5947 15.08839143189150
STARLINK-4074           
1 52678U 22053Y   25288.71103977  .00000897  00000+0  74419-4 0  9992
2 52678  53.2176  75.0603 0001205  91.5231 268.5899 15.08839263189284
STARLINK-4031           
1 52679U 22053Z   25288.81407256  .00000095  00000+0  24027-4 0  9991
2 52679  53.2165  74.4912 0001215  94.6735 265.4396 15.08841996189265
STARLINK-3774           
1 52680U 22053AA  25288.80668124  .00002055  00000+0  14721-3 0  9992
2 52680  53.2170  74.2929 0001406  88.9675 271.1478 15.08833795189285
STARLINK-4068           
1 52681U 22053AB  25288.67791394  .00002465  00000+0  17289-3 0  9991
2 52681  53.2157  75.1022 0001168  85.4861 274.6264 15.08848725189245
STARLINK-4017           
1 52682U 22053AC  25288.82142972  .00000229  00000+0  32466-4 0  9992
2 52682  53.2146  74.4595 0001250  92.3790 267.7345 15.08836183189283
STARLINK-4014           
1 52684U 22053AE  25288.81775632  .00007901  00000+0  51385-3 0  9992
2 52684  53.2152  74.4748 0001385  83.7895 276.3255 15.08845459189261
STARLINK-4029           
1 52685U 22053AF  25288.39823002 -.00001286  00000+0 -62726-4 0  9995
2 52685  53.2171  76.3592 0001316  86.6149 273.4993 15.08842171189185
STARLINK-4005           
1 52686U 22053AG  25288.70100757 -.00002075  00000+0 -11241-3 0  9998
2 52686  53.2174  75.2787 0000983  89.3633 270.7472 15.08812162189235
STARLINK-3981           
1 52687U 22053AH  25288.79198882  .00002638  00000+0  18376-3 0  9993
2 52687  53.2161  74.5900 0001373  87.2874 272.8275 15.08842571189241
STARLINK-4032           
1 52688U 22053AJ  25288.78829464  .00000706  00000+0  62467-4 0  9995
2 52688  53.2170  74.4904 0001357  89.0374 271.0773 15.08838416189249
STARLINK-4078           
1 52689U 22053AK  25288.72890279  .00038534  00000+0  10744-2 0  9991
2 52689  53.2176  50.5821 0000672  89.4260 270.6821 15.36419434189612
STARLINK-4035           
1 52690U 22053AL  25288.79934534  .00000718  00000+0  63157-4 0  9994
2 52690  53.2171  74.5581 0001256  85.3524 274.7611 15.08845530189245
STARLINK-3993           
1 52692U 22053AN  25288.82875853  .00000493  00000+0  49093-4 0  9991
2 52692  53.2171  74.1547 0001341  90.0884 270.0262 15.08837040189284
